{"type": "FeatureCollection", "features": [ {"type": "Feature", "properties": {"norad_id": 67019, "name": "STARLINK-35688", "group": "last-30-days", "lat": 51.686899723036376, "lon": -30.316643894271202, "alt_km": 290.73306416618743, "timestamp": "2025-12-20T03:42:46.123084+00:00", "meta": {"OBJECT_NAME": "STARLINK-35688", "OBJECT_ID": "2025-293S", "EPOCH": "2025-12-19T20:00:01.999008", "MEAN_MOTION": 15.93733985, "ECCENTRICITY": 0.0003935, "INCLINATION": 69.9938, "RA_OF_ASC_NODE": 303.1572, "ARG_OF_PERICENTER": 264.1265, "MEAN_ANOMALY": 109.8407, "EPHEMERIS_TYPE": 0, "CLASSIFICATION_TYPE": "U", "NORAD_CAT_ID": 67019, "ELEMENT_SET_NO": 999, "REV_AT_EPOCH": 145, "BSTAR": -0.0031673, "MEAN_MOTION_DOT": -0.01149498, "MEAN_MOTION_DDOT": 0.00039781}, "tle": {"line1": "1 67019U 25293S   25353.83335647 -.01149498  39781-3 -31673-2 0  9992", "line2": "2 67019  69.9938 303.1572 0003935 264.1265 109.8407 15.93733985  1458"}}, "geometry": {"type": "Point", "coordinates": [-30.316643894271202, 51.686899723036376]}}, {"type": "Feature", "properties": {"norad_id": 67020, "name": "STARLINK-36172", "group": "last-30-days", "lat": 53.98752293229072, "lon": -27.69653475038823, "alt_km": 290.2178000512349, "timestamp": "2025-12-20T03:42:46.123093+00:00", "meta": {"OBJECT_NAME": "STARLINK-36172", "OBJECT_ID": "2025-293T", "EPOCH": "2025-12-19T20:00:01.999008", "MEAN_MOTION": 15.93813969, "ECCENTRICITY": 0.0003997, "INCLINATION": 69.9937, "RA_OF_ASC_NODE": 303.1541, "ARG_OF_PERICENTER": 269.4596, "MEAN_ANOMALY": 107.21, "EPHEMERIS_TYPE": 0, "CLASSIFICATION_TYPE": "U", "NORAD_CAT_ID": 67020, "ELEMENT_SET_NO": 999, "REV_AT_EPOCH": 137, "BSTAR": -0.0032194, "MEAN_MOTION_DOT": -0.01173171, "MEAN_MOTION_DDOT": 0.00041339}, "tle": {"line1": "1 67020U 25293T   25353.83335647 -.01173171  41339-3 -32194-2 0  9990", "line2": "2 67020  69.9937 303.1541 0003997 269.4596 107.2100 15.93813969  1372"}}, "geometry": {"type": "Point", "coordinates": [-27.69653475038823, 53.98752293229072]}}, {"type": "Feature", "properties": {"norad_id": 67021, "name": "STARLINK-36184", "group": "last-30-days", "lat": 56.02367130042692, "lon": -25.05484879741308, "alt_km": 289.91925307550537, "timestamp": "2025-12-20T03:42:46.123107+00:00", "meta": {"OBJECT_NAME": "STARLINK-36184", "OBJECT_ID": "2025-293U", "EPOCH": "2025-12-19T20:00:01.999008", "MEAN_MOTION": 15.9388166, "ECCENTRICITY": 0.000399, "INCLINATION": 69.9938, "RA_OF_ASC_NODE": 303.1509, "ARG_OF_PERICENTER": 266.3324, "MEAN_ANOMALY": 112.8064, "EPHEMERIS_TYPE": 0, "CLASSIFICATION_TYPE": "U", "NORAD_CAT_ID": 67021, "ELEMENT_SET_NO": 999, "REV_AT_EPOCH": 137, "BSTAR": -0.0032761, "MEAN_MOTION_DOT": -0.01197859, "MEAN_MOTION_DDOT": 0.00042988}, "tle": {"line1": "1 67021U 25293U   25353.83335647 -.01197859  42988-3 -32761-2 0  9991", "line2": "2 67021  69.9938 303.1509 0003990 266.3324 112.8064 15.93881660  1370"}}, "geometry": {"type": "Point", "coordinates": [-25.05484879741308, 56.02367130042692]}}, {"type": "Feature", "properties": {"norad_id": 67022, "name": "STARLINK-36209", "group": "last-30-days", "lat": 58.33515722083207, "lon": -21.576138708104526, "alt_km": 289.4992655588676, "timestamp": "2025-12-20T03:42:46.123119+00:00", "meta": {"OBJECT_NAME": "STARLINK-36209", "OBJECT_ID": "2025-293V", "EPOCH": "2025-12-19T20:00:01.999008", "MEAN_MOTION": 15.93961912, "ECCENTRICITY": 0.0003982, "INCLINATION": 69.9937, "RA_OF_ASC_NODE": 303.1476, "ARG_OF_PERICENTER": 267.2563, "MEAN_ANOMALY": 114.7826, "EPHEMERIS_TYPE": 0, "CLASSIFICATION_TYPE": "U", "NORAD_CAT_ID": 67022, "ELEMENT_SET_NO": 999, "REV_AT_EPOCH": 137, "BSTAR": -0.0033619, "MEAN_MOTION_DOT": -0.01234078, "MEAN_MOTION_DDOT": 0.00045453}, "tle": {"line1": "1 67022U 25293V   25353.83335647 -.01234078  45453-3 -33619-2 0  9990", "line2": "2 67022  69.9937 303.1476 0003982 267.2563 114.7826 15.93961912  1375"}}, "geometry": {"type": "Point", "coordinates": [-21.576138708104526, 58.33515722083207]}}, {"type": "Feature", "properties": {"norad_id": 67023, "name": "STARLINK-36191", "group": "last-30-days", "lat": 60.14406411773584, "lon": -18.387149081408555, "alt_km": 289.2028655435006, "timestamp": "2025-12-20T03:42:46.123129+00:00", "meta": {"OBJECT_NAME": "STARLINK-36191", "OBJECT_ID": "2025-293W", "EPOCH": "2025-12-19T20:00:01.999008", "MEAN_MOTION": 15.94032838, "ECCENTRICITY": 0.0004033, "INCLINATION": 69.9936, "RA_OF_ASC_NODE": 303.1443, "ARG_OF_PERICENTER": 268.5533, "MEAN_ANOMALY": 115.8505, "EPHEMERIS_TYPE": 0, "CLASSIFICATION_TYPE": "U", "NORAD_CAT_ID": 67023, "ELEMENT_SET_NO": 999, "REV_AT_EPOCH": 130, "BSTAR": -0.0034569, "MEAN_MOTION_DOT": -0.01273339, "MEAN_MOTION_DDOT": 0.00048191}, "tle": {"line1": "1 67023U 25293W   25353.83335647 -.01273339  48191-3 -34569-2 0  9991", "line2": "2 67023  69.9936 303.1443 0004033 268.5533 115.8505 15.94032838  1304"}}, "geometry": {"type": "Point", "coordinates": [-18.387149081408555, 60.14406411773584]}}, {"type": "Feature", "properties": {"norad_id": 67024, "name": "STARLINK-36192", "group": "last-30-days", "lat": 62.09530907532504, "lon": -14.319274491675232, "alt_km": 288.7413239333373, "timestamp": "2025-12-20T03:42:46.123139+00:00", "meta": {"OBJECT_NAME": "STARLINK-36192", "OBJECT_ID": "2025-293X", "EPOCH": "2025-12-19T14:00:03.000384", "MEAN_MOTION": 15.94686034, "ECCENTRICITY": 0.00039996, "INCLINATION": 69.9936, "RA_OF_ASC_NODE": 303.8699, "ARG_OF_PERICENTER": 270.103, "MEAN_ANOMALY": 122.5851, "EPHEMERIS_TYPE": 0, "CLASSIFICATION_TYPE": "U", "NORAD_CAT_ID": 67024, "ELEMENT_SET_NO": 999, "REV_AT_EPOCH": 133, "BSTAR": -0.0032994294, "MEAN_MOTION_DOT": -0.01258271, "MEAN_MOTION_DDOT": 0.00047460986}, "tle": {"line1": "1 67024U 25293X   25353.58336806 -.01258271  47461-3 -32994-2 0  9999", "line2": "2 67024  69.9936 303.8699 0003999 270.1030 122.5851 15.94686034  1331"}}, "geometry": {"type": "Point", "coordinates": [-14.319274491675232, 62.09530907532504]}}, {"type": "Feature", "properties": {"norad_id": 67025, "name": "STARLINK-36178", "group": "last-30-days", "lat": 63.56645622842129, "lon": -10.664527761223829, "alt_km": 288.64407193831994, "timestamp": "2025-12-20T03:42:46.123149+00:00", "meta": {"OBJECT_NAME": "STARLINK-36178", "OBJECT_ID": "2025-293Y", "EPOCH": "2025-12-19T20:00:01.999008", "MEAN_MOTION": 15.94153534, "ECCENTRICITY": 0.0004023, "INCLINATION": 69.9938, "RA_OF_ASC_NODE": 303.1386, "ARG_OF_PERICENTER": 266.7334, "MEAN_ANOMALY": 122.5365, "EPHEMERIS_TYPE": 0, "CLASSIFICATION_TYPE": "U", "NORAD_CAT_ID": 67025, "ELEMENT_SET_NO": 999, "REV_AT_EPOCH": 137, "BSTAR": -0.0035487, "MEAN_MOTION_DOT": -0.01315077, "MEAN_MOTION_DDOT": 0.00051208}, "tle": {"line1": "1 67025U 25293Y   25353.83335647 -.01315077  51208-3 -35487-2 0  9992", "line2": "2 67025  69.9938 303.1386 0004023 266.7334 122.5365 15.94153534  1375"}}, "geometry": {"type": "Point", "coordinates": [-10.664527761223829, 63.56645622842129]}}, {"type": "Feature", "properties": {"norad_id": 67026, "name": "STARLINK-36176", "group": "last-30-days", "lat": 66.43857464503934, "lon": -1.1299539610893834, "alt_km": 288.14501077127534, "timestamp": "2025-12-20T03:42:46.123160+00:00", "meta": {"OBJECT_NAME": "STARLINK-36176", "OBJECT_ID": "2025-293Z", "EPOCH": "2025-12-19T20:00:01.999008", "MEAN_MOTION": 15.94257463, "ECCENTRICITY": 0.0004041, "INCLINATION": 69.9934, "RA_OF_ASC_NODE": 303.133, "ARG_OF_PERICENTER": 267.7563, "MEAN_ANOMALY": 126.3356, "EPHEMERIS_TYPE": 0, "CLASSIFICATION_TYPE": "U", "NORAD_CAT_ID": 67026, "ELEMENT_SET_NO": 999, "REV_AT_EPOCH": 137, "BSTAR": -0.0035781, "MEAN_MOTION_DOT": -0.0133311, "MEAN_MOTION_DDOT": 0.00052567}, "tle": {"line1": "1 67026U 25293Z   25353.83335647 -.01333110  52567-3 -35781-2 0  9997", "line2": "2 67026  69.9934 303.1330 0004041 267.7563 126.3356 15.94257463  1374"}}, "geometry": {"type": "Point", "coordinates": [-1.1299539610893834, 66.43857464503934]}}, {"type": "Feature", "properties": {"norad_id": 67027, "name": "STARLINK-36171", "group": "last-30-days", "lat": 65.30144438366483, "lon": -5.403586298463459, "alt_km": 288.28490677236186, "timestamp": "2025-12-20T03:42:46.123170+00:00", "meta": {"OBJECT_NAME": "STARLINK-36171", "OBJECT_ID": "2025-293AA", "EPOCH": "2025-12-19T20:00:01.999008", "MEAN_MOTION": 15.9421228, "ECCENTRICITY": 0.0003946, "INCLINATION": 69.9934, "RA_OF_ASC_NODE": 303.1355, "ARG_OF_PERICENTER": 268.4649, "MEAN_ANOMALY": 123.5946, "EPHEMERIS_TYPE": 0, "CLASSIFICATION_TYPE": "U", "NORAD_CAT_ID": 67027, "ELEMENT_SET_NO": 999, "REV_AT_EPOCH": 137, "BSTAR": -0.0035735, "MEAN_MOTION_DOT": -0.01328191, "MEAN_MOTION_DDOT": 0.00052186}, "tle": {"line1": "1 67027U 25293AA  25353.83335647 -.01328191  52186-3 -35735-2 0  9997", "line2": "2 67027  69.9934 303.1355 0003946 268.4649 123.5946 15.94212280  1370"}}, "geometry": {"type": "Point", "coordinates": [-5.403586298463459, 65.30144438366483]}}, {"type": "Feature", "properties": {"norad_id": 67028, "name": "STARLINK-36132", "group": "last-30-days", "lat": 68.60929049682328, "lon": 10.656487324587527, "alt_km": 287.7105885086021, "timestamp": "2025-12-20T03:42:46.123180+00:00", "meta": {"OBJECT_NAME": "STARLINK-36132", "OBJECT_ID": "2025-293AB", "EPOCH": "2025-12-19T20:00:01.999008", "MEAN_MOTION": 15.94362378, "ECCENTRICITY": 0.0004041, "INCLINATION": 69.9937, "RA_OF_ASC_NODE": 303.1271, "ARG_OF_PERICENTER": 267.866, "MEAN_ANOMALY": 131.0983, "EPHEMERIS_TYPE": 0, "CLASSIFICATION_TYPE": "U", "NORAD_CAT_ID": 67028, "ELEMENT_SET_NO": 999, "REV_AT_EPOCH": 137, "BSTAR": -0.0036041, "MEAN_MOTION_DOT": -0.01350066, "MEAN_MOTION_DDOT": 0.00053865}, "tle": {"line1": "1 67028U 25293AB  25353.83335647 -.01350066  53865-3 -36041-2 0  9990", "line2": "2 67028  69.9937 303.1271 0004041 267.8660 131.0983 15.94362378  1373"}}, "geometry": {"type": "Point", "coordinates": [10.656487324587527, 68.60929049682328]}}]}